CCSDS_OMM_VERS = 2.0
CREATION_DATE  = 
ORIGINATOR     = 

OBJECT_NAME    = 2025-292J
OBJECT_ID      = 2025-292J
CENTER_NAME    = EARTH
REF_FRAME      = TEME
TIME_SYSTEM    = UTC
MEAN_ELEMENT_THEORY = SGP/SGP4

EPOCH          = 2025-12-21T10:54:09.831744
MEAN_MOTION    = 15.04387763
ECCENTRICITY   = .0014543
INCLINATION    = 97.6553
RA_OF_ASC_NODE = 67.9226
ARG_OF_PERICENTER = 236.2773
MEAN_ANOMALY   = 123.7068

EPHEMERIS_TYPE = 0
CLASSIFICATION_TYPE = U
NORAD_CAT_ID   = 67001
ELEMENT_SET_NO = 999
REV_AT_EPOCH   = 170
BSTAR          = .28943E-3
MEAN_MOTION_DOT = .3987E-4
MEAN_MOTION_DDOT = 0

CCSDS_OMM_VERS = 2.0
CREATION_DATE  = 
ORIGINATOR     = 

OBJECT_NAME    = ZK-1A R/B
OBJECT_ID      = 2025-292K
CENTER_NAME    = EARTH
REF_FRAME      = TEME
TIME_SYSTEM    = UTC
MEAN_ELEMENT_THEORY = SGP/SGP4

EPOCH          = 2025-12-21T11:16:07.595040
MEAN_MOTION    = 15.57277513
ECCENTRICITY   = .0210257
INCLINATION    = 97.7208
RA_OF_ASC_NODE = 68.9630
ARG_OF_PERICENTER = 333.8006
MEAN_ANOMALY   = 25.2727

EPHEMERIS_TYPE = 0
CLASSIFICATION_TYPE = U
NORAD_CAT_ID   = 67002
ELEMENT_SET_NO = 999
REV_AT_EPOCH   = 175
BSTAR          = .68958E-3
MEAN_MOTION_DOT = .14528E-2
MEAN_MOTION_DDOT = .77959E-5

CCSDS_OMM_VERS = 2.0
CREATION_DATE  = 
ORIGINATOR     = 

OBJECT_NAME    = STARLINK-35660
OBJECT_ID      = 2025-293A
CENTER_NAME    = EARTH
REF_FRAME      = TEME
TIME_SYSTEM    = UTC
MEAN_ELEMENT_THEORY = SGP/SGP4

EPOCH          = 2025-12-21T12:00:02.000160
MEAN_MOTION    = 15.89350166
ECCENTRICITY   = .0003844
INCLINATION    = 69.9934
RA_OF_ASC_NODE = 298.3666
ARG_OF_PERICENTER = 277.5028
MEAN_ANOMALY   = 242.4741

EPHEMERIS_TYPE = 0
CLASSIFICATION_TYPE = U
NORAD_CAT_ID   = 67003
ELEMENT_SET_NO = 999
REV_AT_EPOCH   = 158
BSTAR          = .17438E-4
MEAN_MOTION_DOT = .3836E-4
MEAN_MOTION_DDOT = .39142E-5

CCSDS_OMM_VERS = 2.0
CREATION_DATE  = 
ORIGINATOR     = 

OBJECT_NAME    = STARLINK-35913
OBJECT_ID      = 2025-293B
CENTER_NAME    = EARTH
REF_FRAME      = TEME
TIME_SYSTEM    = UTC
MEAN_ELEMENT_THEORY = SGP/SGP4

EPOCH          = 2025-12-21T12:00:02.000160
MEAN_MOTION    = 15.89395404
ECCENTRICITY   = .0004293
INCLINATION    = 69.9934
RA_OF_ASC_NODE = 298.3638
ARG_OF_PERICENTER = 265.4638
MEAN_ANOMALY   = 256.7830

EPHEMERIS_TYPE = 0
CLASSIFICATION_TYPE = U
NORAD_CAT_ID   = 67004
ELEMENT_SET_NO = 999
REV_AT_EPOCH   = 158
BSTAR          = -.20627E-3
MEAN_MOTION_DOT = -.61366E-3
MEAN_MOTION_DDOT = .51222E-5

CCSDS_OMM_VERS = 2.0
CREATION_DATE  = 
ORIGINATOR     = 

OBJECT_NAME    = STARLINK-36148
OBJECT_ID      = 2025-293C
CENTER_NAME    = EARTH
REF_FRAME      = TEME
TIME_SYSTEM    = UTC
MEAN_ELEMENT_THEORY = SGP/SGP4

EPOCH          = 2025-12-21T12:00:02.000160
MEAN_MOTION    = 15.89431954
ECCENTRICITY   = .0004214
INCLINATION    = 69.9937
RA_OF_ASC_NODE = 298.3614
ARG_OF_PERICENTER = 266.5992
MEAN_ANOMALY   = 258.0286

EPHEMERIS_TYPE = 0
CLASSIFICATION_TYPE = U
NORAD_CAT_ID   = 67005
ELEMENT_SET_NO = 999
REV_AT_EPOCH   = 158
BSTAR          = -.29456E-3
MEAN_MOTION_DOT = -.87257E-3
MEAN_MOTION_DDOT = .63849E-5

CCSDS_OMM_VERS = 2.0
CREATION_DATE  = 
ORIGINATOR     = 

OBJECT_NAME    = STARLINK-36156
OBJECT_ID      = 2025-293D
CENTER_NAME    = EARTH
REF_FRAME      = TEME
TIME_SYSTEM    = UTC
MEAN_ELEMENT_THEORY = SGP/SGP4

EPOCH          = 2025-12-21T12:00:02.000160
MEAN_MOTION    = 15.89491044
ECCENTRICITY   = .0004272
INCLINATION    = 69.9936
RA_OF_ASC_NODE = 298.3542
ARG_OF_PERICENTER = 265.4491
MEAN_ANOMALY   = 264.7800

EPHEMERIS_TYPE = 0
CLASSIFICATION_TYPE = U
NORAD_CAT_ID   = 67006
ELEMENT_SET_NO = 999
REV_AT_EPOCH   = 158
BSTAR          = -.35159E-3
MEAN_MOTION_DOT = -.104215E-2
MEAN_MOTION_DDOT = .74509E-5

CCSDS_OMM_VERS = 2.0
CREATION_DATE  = 
ORIGINATOR     = 

OBJECT_NAME    = STARLINK-36123
OBJECT_ID      = 2025-293E
CENTER_NAME    = EARTH
REF_FRAME      = TEME
TIME_SYSTEM    = UTC
MEAN_ELEMENT_THEORY = SGP/SGP4

EPOCH          = 2025-12-21T12:00:02.000160
MEAN_MOTION    = 15.89442048
ECCENTRICITY   = .0004213
INCLINATION    = 69.9934
RA_OF_ASC_NODE = 298.3571
ARG_OF_PERICENTER = 272.6186
MEAN_ANOMALY   = 255.0787

EPHEMERIS_TYPE = 0
CLASSIFICATION_TYPE = U
NORAD_CAT_ID   = 67007
ELEMENT_SET_NO = 999
REV_AT_EPOCH   = 158
BSTAR          = -.16688E-3
MEAN_MOTION_DOT = -.49994E-3
MEAN_MOTION_DDOT = .47081E-5

CCSDS_OMM_VERS = 2.0
CREATION_DATE  = 
ORIGINATOR     = 

OBJECT_NAME    = STARLINK-36163
OBJECT_ID      = 2025-293F
CENTER_NAME    = EARTH
REF_FRAME      = TEME
TIME_SYSTEM    = UTC
MEAN_ELEMENT_THEORY = SGP/SGP4

EPOCH          = 2025-12-21T12:00:02.000160
MEAN_MOTION    = 15.89530677
ECCENTRICITY   = .0004246
INCLINATION    = 69.9935
RA_OF_ASC_NODE = 298.3504
ARG_OF_PERICENTER = 265.9321
MEAN_ANOMALY   = 267.6169

EPHEMERIS_TYPE = 0
CLASSIFICATION_TYPE = U
NORAD_CAT_ID   = 67008
ELEMENT_SET_NO = 999
REV_AT_EPOCH   = 158
BSTAR          = -.46049E-3
MEAN_MOTION_DOT = -.136376E-2
MEAN_MOTION_DDOT = .99791E-5

CCSDS_OMM_VERS = 2.0
CREATION_DATE  = 
ORIGINATOR     = 

OBJECT_NAME    = STARLINK-36118
OBJECT_ID      = 2025-293G
CENTER_NAME    = EARTH
REF_FRAME      = TEME
TIME_SYSTEM    = UTC
MEAN_ELEMENT_THEORY = SGP/SGP4

EPOCH          = 2025-12-21T12:00:02.000160
MEAN_MOTION    = 15.89579696
ECCENTRICITY   = .0004164
INCLINATION    = 69.9934
RA_OF_ASC_NODE = 298.3472
ARG_OF_PERICENTER = 274.1748
MEAN_ANOMALY   = 262.1153

EPHEMERIS_TYPE = 0
CLASSIFICATION_TYPE = U
NORAD_CAT_ID   = 67009
ELEMENT_SET_NO = 999
REV_AT_EPOCH   = 152
BSTAR          = -.63201E-3
MEAN_MOTION_DOT = -.187149E-2
MEAN_MOTION_DDOT = .15305E-4

CCSDS_OMM_VERS = 2.0
CREATION_DATE  = 
ORIGINATOR     = 

OBJECT_NAME    = STARLINK-36189
OBJECT_ID      = 2025-293H
CENTER_NAME    = EARTH
REF_FRAME      = TEME
TIME_SYSTEM    = UTC
MEAN_ELEMENT_THEORY = SGP/SGP4

EPOCH          = 2025-12-21T12:00:02.000160
MEAN_MOTION    = 15.89655158
ECCENTRICITY   = .0004196
INCLINATION    = 69.9934
RA_OF_ASC_NODE = 298.3412
ARG_OF_PERICENTER = 270.8814
MEAN_ANOMALY   = 270.2978

EPHEMERIS_TYPE = 0
CLASSIFICATION_TYPE = U
NORAD_CAT_ID   = 67010
ELEMENT_SET_NO = 999
REV_AT_EPOCH   = 158
BSTAR          = -.84039E-3
MEAN_MOTION_DOT = -.24936E-2
MEAN_MOTION_DDOT = .24013E-4

CCSDS_OMM_VERS = 2.0
CREATION_DATE  = 
ORIGINATOR     = 

OBJECT_NAME    = STARLINK-36167
OBJECT_ID      = 2025-293J
CENTER_NAME    = EARTH
REF_FRAME      = TEME
TIME_SYSTEM    = UTC
MEAN_ELEMENT_THEORY = SGP/SGP4

EPOCH          = 2025-12-21T12:00:02.000160
MEAN_MOTION    = 15.89611848
ECCENTRICITY   = .0004242
INCLINATION    = 69.9930
RA_OF_ASC_NODE = 298.3440
ARG_OF_PERICENTER = 269.9538
MEAN_ANOMALY   = 268.4427

EPHEMERIS_TYPE = 0
CLASSIFICATION_TYPE = U
NORAD_CAT_ID   = 67011
ELEMENT_SET_NO = 999
REV_AT_EPOCH   = 152
BSTAR          = -.67875E-3
MEAN_MOTION_DOT = -.201224E-2
MEAN_MOTION_DDOT = .17069E-4

CCSDS_OMM_VERS = 2.0
CREATION_DATE  = 
ORIGINATOR     = 

OBJECT_NAME    = STARLINK-36175
OBJECT_ID      = 2025-293K
CENTER_NAME    = EARTH
REF_FRAME      = TEME
TIME_SYSTEM    = UTC
MEAN_ELEMENT_THEORY = SGP/SGP4

EPOCH          = 2025-12-21T12:00:02.000160
MEAN_MOTION    = 15.89701091
ECCENTRICITY   = .0004195
INCLINATION    = 69.9930
RA_OF_ASC_NODE = 298.3384
ARG_OF_PERICENTER = 271.5062
MEAN_ANOMALY   = 271.9321

EPHEMERIS_TYPE = 0
CLASSIFICATION_TYPE = U
NORAD_CAT_ID   = 67012
ELEMENT_SET_NO = 999
REV_AT_EPOCH   = 152
BSTAR          = -.97463E-3
MEAN_MOTION_DOT = -.289635E-2
MEAN_MOTION_DDOT = .309E-4

