2025-292J               
1 67001U 25292J   25355.45428046  .00003987  00000+0  28943-3 0  9992
2 67001  97.6553  67.9226 0014543 236.2773 123.7068 15.04387763  1709
ZK-1A R/B               
1 67002U 25292K   25355.46953235  .00145280  77959-5  68958-3 0  9993
2 67002  97.7208  68.9630 0210257 333.8006  25.2727 15.57277513  1753
STARLINK-35660          
1 67003U 25293A   25355.50002315  .00003836  39142-5  17438-4 0  9994
2 67003  69.9934 298.3666 0003844 277.5028 242.4741 15.89350166  1580
STARLINK-35913          
1 67004U 25293B   25355.50002315 -.00061366  51222-5 -20627-3 0  9995
2 67004  69.9934 298.3638 0004293 265.4638 256.7830 15.89395404  1583
STARLINK-36148          
1 67005U 25293C   25355.50002315 -.00087257  63849-5 -29456-3 0  9990
2 67005  69.9937 298.3614 0004214 266.5992 258.0286 15.89431954  1580
STARLINK-36156          
1 67006U 25293D   25355.50002315 -.00104215  74509-5 -35159-3 0  9997
2 67006  69.9936 298.3542 0004272 265.4491 264.7800 15.89491044  1588
STARLINK-36123          
1 67007U 25293E   25355.50002315 -.00049994  47081-5 -16688-3 0  9991
2 67007  69.9934 298.3571 0004213 272.6186 255.0787 15.89442048  1582
STARLINK-36163          
1 67008U 25293F   25355.50002315 -.00136376  99791-5 -46049-3 0  9992
2 67008  69.9935 298.3504 0004246 265.9321 267.6169 15.89530677  1581
STARLINK-36118          
1 67009U 25293G   25355.50002315 -.00187149  15305-4 -63201-3 0  9994
2 67009  69.9934 298.3472 0004164 274.1748 262.1153 15.89579696  1520
STARLINK-36189          
1 67010U 25293H   25355.50002315 -.00249360  24013-4 -84039-3 0  9998
2 67010  69.9934 298.3412 0004196 270.8814 270.2978 15.89655158  1587
STARLINK-36167          
1 67011U 25293J   25355.50002315 -.00201224  17069-4 -67875-3 0  9998
2 67011  69.9930 298.3440 0004242 269.9538 268.4427 15.89611848  1529
STARLINK-36175          
1 67012U 25293K   25355.50002315 -.00289635  30900-4 -97463-3 0  9996
2 67012  69.9930 298.3384 0004195 271.5062 271.9321 15.89701091  1527
